*******************************************************************************
Ephemeris / WWW_USER Fri Mar  7 11:16:44 2025 Pasadena, USA      / Horizons    
*******************************************************************************
Target body name: (2018 VC)                       {source: JPL#21}
Center body name: Earth (399)                     {source: DE441}
Center-site name: Mauna Kea
*******************************************************************************
Start time      : A.D. 2018-Nov-21 03:51:00.0000 UT      
Stop  time      : A.D. 2018-Nov-21 16:24:00.0000 UT      
Step-size       : 1 minutes
*******************************************************************************
Target pole/equ : undefined
Target radii    : undefined                                                    
Center geodetic : 204.5278, 19.8260847, 4.21024   {E-lon(deg),Lat(deg),Alt(km)}
Center cylindric: 204.5278, 6006.35451, 2151.0229 {E-lon(deg),Dxy(km),Dz(km)}
Center pole/equ : ITRF93                          {East-longitude positive}
Center radii    : 6378.137, 6378.137, 6356.752 km {Equator_a, b, pole_c}       
Target primary  : Sun
Vis. interferer : MOON (R_eq= 1737.400) km        {source: DE441}
Rel. light bend : Sun                             {source: DE441}
Rel. lght bnd GM: 1.3271E+11 km^3/s^2                                          
Small-body perts: Yes                             {source: SB441-N16}
Atmos refraction: NO (AIRLESS)
RA format       : HMS
Time format     : CAL 
Calendar mode   : Mixed Julian/Gregorian
RTS-only print  : NO       
EOP file        : eop.250306.p250602                                           
EOP coverage    : DATA-BASED 1962-JAN-20 TO 2025-MAR-06. PREDICTS-> 2025-JUN-01
Units conversion: 1 au= 149597870.700 km, c= 299792.458 km/s, 1 day= 86400.0 s 
Table cut-offs 1: Elevation (-90.0deg=NO ),Airmass (>38.000=NO), Daylight (YES)
Table cut-offs 2: Solar elongation (  0.0,180.0=NO ),Local Hour Angle( 0.0=NO )
Table cut-offs 3: RA/DEC angular rate (     0.0=NO )                           
*******************************************************************************
Initial IAU76/J2000 heliocentric ecliptic osculating elements (au, days, deg.):
  EPOCH=  2458962.5 ! 2020-Apr-23.00 (TDB)         Residual RMS= .087367       
   EC= .1691367762722357   QR= .9358500167919792   TP= 2458809.0997793972      
   OM= 36.58853997425776   W=  304.3228784920618   IN= 3.701146998496158       
  Equivalent ICRF heliocentric cartesian coordinates (au, au/d):
   X=-6.479543737333916E-01  Y= 9.538692942598190E-01  Z= 5.016232001756915E-01
  VX=-1.316843360643849E-02 VY=-5.467047892625660E-03 VZ=-2.149198049185293E-03
Asteroid physical parameters (km, seconds, rotational period in hours):        
   GM= n.a.                RAD= n.a.               ROTPER= n.a.                
   H= 26.34                G= .150                 B-V= n.a.                   
                           ALBEDO= n.a.            STYP= n.a.                  
*******************************************************************************
 Date__(UT)__HR:MN     R.A._________(ICRF)_________DEC
******************************************************
$$SOE
 2018-Nov-21 10:00  m  02 34 12.271262 +36 33 44.68644
 2018-Nov-21 10:01  m  02 34 12.262971 +36 33 44.60654
 2018-Nov-21 10:02  m  02 34 12.254733 +36 33 44.52537
 2018-Nov-21 10:03  m  02 34 12.246549 +36 33 44.44293
 2018-Nov-21 10:04  m  02 34 12.238421 +36 33 44.35922
 2018-Nov-21 10:05  m  02 34 12.230349 +36 33 44.27424
 2018-Nov-21 10:06  m  02 34 12.222333 +36 33 44.18800
 2018-Nov-21 10:07  m  02 34 12.214376 +36 33 44.10049
 2018-Nov-21 10:08  m  02 34 12.206476 +36 33 44.01171
 2018-Nov-21 10:09  m  02 34 12.198636 +36 33 43.92168
 2018-Nov-21 10:10  m  02 34 12.190855 +36 33 43.83039
 2018-Nov-21 10:11  m  02 34 12.183135 +36 33 43.73784
 2018-Nov-21 10:12  m  02 34 12.175477 +36 33 43.64404
 2018-Nov-21 10:13  m  02 34 12.167880 +36 33 43.54898
 2018-Nov-21 10:14  m  02 34 12.160346 +36 33 43.45268
 2018-Nov-21 10:15  m  02 34 12.152876 +36 33 43.35512
 2018-Nov-21 10:16  m  02 34 12.145470 +36 33 43.25632
 2018-Nov-21 10:17  m  02 34 12.138129 +36 33 43.15628
 2018-Nov-21 10:18  m  02 34 12.130854 +36 33 43.05499
 2018-Nov-21 10:19  m  02 34 12.123646 +36 33 42.95246
 2018-Nov-21 10:20  m  02 34 12.116505 +36 33 42.84869
 2018-Nov-21 10:21  m  02 34 12.109432 +36 33 42.74369
 2018-Nov-21 10:22  m  02 34 12.102428 +36 33 42.63745
 2018-Nov-21 10:23  m  02 34 12.095493 +36 33 42.52999
 2018-Nov-21 10:24  m  02 34 12.088628 +36 33 42.42129
 2018-Nov-21 10:25  m  02 34 12.081835 +36 33 42.31137
 2018-Nov-21 10:26  m  02 34 12.075113 +36 33 42.20022
 2018-Nov-21 10:27  m  02 34 12.068463 +36 33 42.08785
 2018-Nov-21 10:28  m  02 34 12.061887 +36 33 41.97426
 2018-Nov-21 10:29  m  02 34 12.055385 +36 33 41.85945
 2018-Nov-21 10:30  m  02 34 12.048957 +36 33 41.74343
 2018-Nov-21 10:31  m  02 34 12.042605 +36 33 41.62620
 2018-Nov-21 10:32  m  02 34 12.036328 +36 33 41.50775
 2018-Nov-21 10:33  m  02 34 12.030129 +36 33 41.38810
 2018-Nov-21 10:34  m  02 34 12.024007 +36 33 41.26724
 2018-Nov-21 10:35  m  02 34 12.017963 +36 33 41.14518
 2018-Nov-21 10:36  m  02 34 12.011999 +36 33 41.02192
 2018-Nov-21 10:37  m  02 34 12.006113 +36 33 40.89746
 2018-Nov-21 10:38  m  02 34 12.000309 +36 33 40.77180
 2018-Nov-21 10:39  m  02 34 11.994585 +36 33 40.64496
 2018-Nov-21 10:40  m  02 34 11.988943 +36 33 40.51692
 2018-Nov-21 10:41  m  02 34 11.983384 +36 33 40.38770
 2018-Nov-21 10:42  m  02 34 11.977908 +36 33 40.25729
 2018-Nov-21 10:43  m  02 34 11.972516 +36 33 40.12570
 2018-Nov-21 10:44  m  02 34 11.967209 +36 33 39.99293
 2018-Nov-21 10:45  m  02 34 11.961987 +36 33 39.85898
 2018-Nov-21 10:46  m  02 34 11.956851 +36 33 39.72386
 2018-Nov-21 10:47  m  02 34 11.951801 +36 33 39.58757
 2018-Nov-21 10:48  m  02 34 11.946839 +36 33 39.45011
 2018-Nov-21 10:49  m  02 34 11.941966 +36 33 39.31149
 2018-Nov-21 10:50  m  02 34 11.937181 +36 33 39.17170
 2018-Nov-21 10:51  m  02 34 11.932486 +36 33 39.03076
 2018-Nov-21 10:52  m  02 34 11.927881 +36 33 38.88865
 2018-Nov-21 10:53  m  02 34 11.923366 +36 33 38.74540
 2018-Nov-21 10:54  m  02 34 11.918944 +36 33 38.60099
 2018-Nov-21 10:55  m  02 34 11.914613 +36 33 38.45543
 2018-Nov-21 10:56  m  02 34 11.910376 +36 33 38.30873
 2018-Nov-21 10:57  m  02 34 11.906232 +36 33 38.16089
 2018-Nov-21 10:58  m  02 34 11.902183 +36 33 38.01191
 2018-Nov-21 10:59  m  02 34 11.898229 +36 33 37.86179
 2018-Nov-21 11:00  m  02 34 11.894370 +36 33 37.71054
 2018-Nov-21 11:01  m  02 34 11.890608 +36 33 37.55817
 2018-Nov-21 11:02  m  02 34 11.886943 +36 33 37.40466
 2018-Nov-21 11:03  m  02 34 11.883375 +36 33 37.25003
 2018-Nov-21 11:04  m  02 34 11.879906 +36 33 37.09428
 2018-Nov-21 11:05  m  02 34 11.876536 +36 33 36.93741
 2018-Nov-21 11:06  m  02 34 11.873265 +36 33 36.77943
 2018-Nov-21 11:07  m  02 34 11.870095 +36 33 36.62034
 2018-Nov-21 11:08  m  02 34 11.867026 +36 33 36.46014
 2018-Nov-21 11:09  m  02 34 11.864059 +36 33 36.29884
 2018-Nov-21 11:10  m  02 34 11.861194 +36 33 36.13643
 2018-Nov-21 11:11  m  02 34 11.858432 +36 33 35.97293
 2018-Nov-21 11:12  m  02 34 11.855773 +36 33 35.80833
 2018-Nov-21 11:13  m  02 34 11.853219 +36 33 35.64264
 2018-Nov-21 11:14  m  02 34 11.850770 +36 33 35.47586
 2018-Nov-21 11:15  m  02 34 11.848427 +36 33 35.30800
 2018-Nov-21 11:16  m  02 34 11.846189 +36 33 35.13906
 2018-Nov-21 11:17  m  02 34 11.844059 +36 33 34.96904
 2018-Nov-21 11:18  m  02 34 11.842036 +36 33 34.79795
 2018-Nov-21 11:19  m  02 34 11.840121 +36 33 34.62578
 2018-Nov-21 11:20  m  02 34 11.838316 +36 33 34.45255
 2018-Nov-21 11:21  m  02 34 11.836619 +36 33 34.27826
 2018-Nov-21 11:22  m  02 34 11.835033 +36 33 34.10290
 2018-Nov-21 11:23  m  02 34 11.833557 +36 33 33.92649
 2018-Nov-21 11:24  m  02 34 11.832193 +36 33 33.74902
 2018-Nov-21 11:25  m  02 34 11.830940 +36 33 33.57051
 2018-Nov-21 11:26  m  02 34 11.829800 +36 33 33.39094
 2018-Nov-21 11:27  m  02 34 11.828774 +36 33 33.21034
 2018-Nov-21 11:28  m  02 34 11.827861 +36 33 33.02870
 2018-Nov-21 11:29  m  02 34 11.827062 +36 33 32.84602
 2018-Nov-21 11:30  m  02 34 11.826379 +36 33 32.66231
 2018-Nov-21 11:31  m  02 34 11.825811 +36 33 32.47757
 2018-Nov-21 11:32  m  02 34 11.825360 +36 33 32.29181
 2018-Nov-21 11:33  m  02 34 11.825025 +36 33 32.10503
 2018-Nov-21 11:34  m  02 34 11.824808 +36 33 31.91723
 2018-Nov-21 11:35  m  02 34 11.824709 +36 33 31.72841
 2018-Nov-21 11:36  m  02 34 11.824729 +36 33 31.53859
 2018-Nov-21 11:37  m  02 34 11.824868 +36 33 31.34777
 2018-Nov-21 11:38  m  02 34 11.825126 +36 33 31.15594
 2018-Nov-21 11:39  m  02 34 11.825506 +36 33 30.96311
 2018-Nov-21 11:40  m  02 34 11.826006 +36 33 30.76929
 2018-Nov-21 11:41  m  02 34 11.826628 +36 33 30.57448
 2018-Nov-21 11:42  m  02 34 11.827372 +36 33 30.37869
 2018-Nov-21 11:43  m  02 34 11.828239 +36 33 30.18191
 2018-Nov-21 11:44  m  02 34 11.829230 +36 33 29.98415
 2018-Nov-21 11:45  m  02 34 11.830344 +36 33 29.78542
 2018-Nov-21 11:46  m  02 34 11.831583 +36 33 29.58572
 2018-Nov-21 11:47  m  02 34 11.832947 +36 33 29.38505
 2018-Nov-21 11:48  m  02 34 11.834437 +36 33 29.18343
 2018-Nov-21 11:49  m  02 34 11.836053 +36 33 28.98084
 2018-Nov-21 11:50  m  02 34 11.837796 +36 33 28.77729
 2018-Nov-21 11:51  m  02 34 11.839667 +36 33 28.57280
 2018-Nov-21 11:52  m  02 34 11.841665 +36 33 28.36736
 2018-Nov-21 11:53  m  02 34 11.843792 +36 33 28.16098
 2018-Nov-21 11:54  m  02 34 11.846048 +36 33 27.95366
 2018-Nov-21 11:55  m  02 34 11.848433 +36 33 27.74541
 2018-Nov-21 11:56  m  02 34 11.850949 +36 33 27.53623
 2018-Nov-21 11:57  m  02 34 11.853595 +36 33 27.32612
 2018-Nov-21 11:58  m  02 34 11.856373 +36 33 27.11509
 2018-Nov-21 11:59  m  02 34 11.859283 +36 33 26.90314
 2018-Nov-21 12:00  m  02 34 11.862325 +36 33 26.69028
 2018-Nov-21 12:01  m  02 34 11.865500 +36 33 26.47651
 2018-Nov-21 12:02  m  02 34 11.868808 +36 33 26.26184
